GLOBALSTAR M023         
1 25621U 99004A   24229.15743477 -.00000033  00000+0  39535-3 0  9999
2 25621  52.0090 262.2470 0010296 173.2226 254.1960 12.62464631177296
GLOBALSTAR M036         
1 25623U 99004C   24228.58549303  .00000022  00000+0  15339-2 0  9991
2 25623  51.9994 325.8076 0011326 181.2148 191.8360 11.86575638142685
GLOBALSTAR M038         
1 25624U 99004D   24228.92204970 -.00000033  00000+0  51228-3 0  9999
2 25624  51.9945 230.6865 0001839 138.3996 249.3098 12.32505411164734
GLOBALSTAR M022         
1 25649U 99012A   24228.75380465 -.00000072  00000+0  17455-3 0  9997
2 25649  52.0048  41.1994 0001668 292.5804  80.8045 12.02486542139637
GLOBALSTAR M041         
1 25650U 99012B   24228.84132133 -.00000041  00000+0  57095-3 0  9996
2 25650  52.0005 273.1071 0002781  86.5524 273.5630 11.96658909141726
GLOBALSTAR M046         
1 25651U 99012C   24228.70311657 -.00000101  00000+0 -14088-3 0  9995
2 25651  52.0082   2.6240 0002198  23.8353 348.8817 12.09396276146708
GLOBALSTAR M037         
1 25652U 99012D   24229.22646015 -.00000105  00000+0 -64540-5 0  9997
2 25652  52.0017  32.7633 0001338 207.1789 334.4766 12.62414184172815
